POLYITAN-1              
1 40042U 14033AJ  26195.64940967  .00011018  00000+0  33509-3 0  9992
2 40042  98.0932 224.5272 0007974  65.7523 294.4550 15.34206784657807
TIGRISAT                
1 40043U 14033AK  26195.33399963  .00000784  00000+0  95872-4 0  9993
2 40043  97.7862 344.7296 0048698 347.1881  12.8092 14.85248130649652
AEROCUBE 6A             
1 40045U 14033AM  26195.40620934  .00003113  00000+0  26301-3 0  9997
2 40045  97.7242   2.0715 0036370 283.7155  76.0019 14.98338309650698
AEROCUBE 6B             
1 40046U 14033AN  26195.71563576  .00002588  00000+0  21110-3 0  9998
2 40046  97.7198   2.2244 0038037 271.7772  87.9094 14.99795542650884
CANX-4                  
1 40055U 14034C   26195.91470749  .00000427  00000+0  62047-4 0  9995
2 40055  98.3084  72.2412 0011430 283.8407  76.1532 14.81310856648635
CANX-5                  
1 40056U 14034D   26195.64262607  .00000437  00000+0  63260-4 0  9997
2 40056  98.3086  72.0044 0011436 285.0734  74.9212 14.81327975639406
UKUBE-1                 
1 40074U 14037F   26195.93089746  .00004080  00000+0  22944-3 0  9994
2 40074  98.4241 202.1270 0003287  88.5129 271.6477 15.13947752652755
BRITE-PL2 (HEWELIUSZ)   
1 40119U 14049B   26195.88834415  .00000534  00000+0  54623-4 0  9992
2 40119  97.9120 308.1065 0014363  23.2614 336.9253 14.94686767645580
AEROCUBE 5C             
1 40965U 15058B   26195.32618646  .00001764  00000+0  16362-3 0  9990
2 40965  64.7652 178.1530 0132281  52.7587 308.5506 14.91572903369705
AEROCUBE 7              
1 40966U 15058C   26195.51191980  .00002819  00000+0  23039-3 0  9990
2 40966  64.7610 159.2159 0122011  51.0141 310.1765 14.95909907370042
FOX-1A (AO-85)          
1 40967U 15058D   26195.71794219  .00001658  00000+0  15662-3 0  9990
2 40967  64.7725 193.4176 0132321  45.9898 315.2028 14.91086579117678
SINOD-D 1               
1 40968U 15058E   26195.35294344  .00002777  00000+0  22665-3 0  9999
2 40968  64.7732 173.8274 0120993  42.4784 318.5615 14.96082878120727
SNAP-3 ALICE            
1 40970U 15058G   26195.86695612  .00088083  00000+0  79879-3 0  9994
2 40970  64.7493   7.7364 0024513 348.4284  11.6299 15.67150797121213
LMRST-SAT               
1 40971U 15058H   26195.41197421  .00001604  00000+0  15301-3 0  9995
2 40971  64.7731 190.7587 0133838  48.1094 313.1343 14.90700627117610
SNAP-3 EDDIE            
1 40972U 15058J   26195.83481691  .00098503  00000+0  84166-3 0  9996
2 40972  64.7403 358.3612 0025398 350.9380   9.1307 15.68535960123353
PROPCUBE 3              
1 40973U 15058K   26195.91575693  .00002374  00000+0  20246-3 0  9992
2 40973  64.7669 165.8900 0125754  49.1102 312.0824 14.94414800118941
BISONSAT                
1 40974U 15058L   26195.92698598  .00008239  00000+0  39086-3 0  9992
2 40974  64.7585  83.9055 0082101  35.9744 324.6868 15.16928037119825
SNAP-3 JIMI             
1 40975U 15058M   26195.21358746  .00004360  00000+0  30026-3 0  9999
2 40975  64.7645 134.2428 0107787  44.6929 316.2812 15.02600450118283
PROPCUBE 1 (FLORA)      
1 40976U 15058N   26195.39191994  .00001263  00000+0  12865-3 0  9999
2 40976  64.7718 210.9135 0132416  50.3966 310.8748 14.89325455120312
SINOD-D 3               
1 40977U 15058P   26195.34949689  .00002279  00000+0  19838-3 0  9992
2 40977  64.7701 190.9882 0120976  47.4631 313.6620 14.94169664118811
RAVAN                   
1 41849U 16067B   26195.69550271  .00035769  00000+0  48790-3 0  9994
2 41849  97.9847  88.5008 0002158 219.1312 140.9786 15.57429417531971
CELTEE 1                
1 41850U 16067C   26195.59607315  .00002925  00000+0  13972-3 0  9999
2 41850  98.0636  64.0325 0002329 111.0586 249.0896 15.19937383530049
OPTICUBE 04             
1 41851U 16067D   26195.65115739  .00001054  00000+0  69548-4 0  9994
2 41851  98.0674  49.3659 0016205  29.5786 330.6355 15.09770833529310
AEROCUBE 8D             
1 41852U 16067E   26195.39326837  .00004453  00000+0  18302-3 0  9996
2 41852  98.0647  67.6366 0004629  58.5584 301.6104 15.24763137530211
AEROCUBE 8C             
1 41853U 16067F   26195.61059529  .00004132  00000+0  16881-3 0  9997
2 41853  98.0521  65.0631 0004333 343.7365  16.3731 15.25019050530246
CORVUS BC2              
1 42846U 17042X   26195.89455596  .00001222  00000+0  86752-4 0  9990
2 42846  97.4091 356.1739 0013482  24.0992 336.0864 15.06455740491230
CORVUS BC1              
1 42847U 17042Y   26195.88611575  .00001235  00000+0  87249-4 0  9997
2 42847  97.4120 356.9976 0011697   1.3518 358.7739 15.06618518491262
MAKERSAT 0              
1 43016U 17073D   26195.60318523  .00011617  00000+0  30730-3 0  9994
2 43016  97.4584  78.3470 0105407 174.3522 185.8937 15.32992920470669
SIRION PATHFINDER-2     
1 43759U 18099B   26195.73007114  .00002226  00000+0  12343-3 0  9998
2 43759  97.4239 244.1345 0008404 193.1318 166.9696 15.14775345416791
CORVUS BC4              
1 43767U 18099K   26195.84034221  .00002016  00000+0  11873-3 0  9992
2 43767  97.4052 238.0123 0006497 262.4362  97.6132 15.12700869416587
